ONEWEB-0392             
1 50472U 21132D   25230.77870415  .00000085  00000+0  18486-3 0  9990
2 50472  87.9029  66.0090 0001910  99.9915 260.1433 13.17649370178296
ONEWEB-0393             
1 50473U 21132E   25230.82774814  .00000021  00000+0  19724-4 0  9990
2 50473  87.9031  66.0190 0001817  93.8735 266.2604 13.17650993178290
ONEWEB-0394             
1 50474U 21132F   25230.95760879  .00000028  00000+0  38001-4 0  9997
2 50474  87.9143  35.4611 0001942  95.9153 264.2201 13.18685488183036
ONEWEB-0395             
1 50475U 21132G   25230.87924262  .00000577  00000+0  15915-2 0  9993
2 50475  87.8780  81.3284 0001597  93.9970 266.1341 13.11416763176095
ONEWEB-0396             
1 50476U 21132H   25230.87513589  .00000038  00000+0  64886-4 0  9995
2 50476  87.9145  35.4899 0001901  95.0144 265.1205 13.18685832181792
ONEWEB-0397             
1 50477U 21132J   25230.88997087  .00000064  00000+0  13077-3 0  9990
2 50477  87.9141  35.4879 0001992  91.8067 268.3293 13.18686777181774
ONEWEB-0398             
1 50478U 21132K   25230.84701489 -.00000532  00000+0 -15374-2 0  9999
2 50478  87.8788  81.2982 0001318  87.1361 272.9918 13.11416573175981
ONEWEB-0399             
1 50479U 21132L   25230.83345122 -.00000247  00000+0 -73269-3 0  9998
2 50479  87.8778  81.3244 0002050  87.9787 272.1576 13.11415265175975
ONEWEB-0400             
1 50480U 21132M   25231.02027883  .00000066  00000+0  13475-3 0  9993
2 50480  87.9140  35.4521 0001595  94.6477 265.4837 13.18687475183068
ONEWEB-0401             
1 50481U 21132N   25230.91307395 -.00000015  00000+0 -70363-4 0  9996
2 50481  87.9143  35.4694 0001964  88.6835 271.4522 13.18684912181771
ONEWEB-0402             
1 50482U 21132P   25230.95266275  .00000035  00000+0  55701-4 0  9991
2 50482  87.9142  35.4553 0002316  83.0852 277.0543 13.18686968183089
ONEWEB-0403             
1 50483U 21132Q   25230.97740319 -.00000023  00000+0 -92238-4 0  9995
2 50483  87.9143  35.4690 0001799  96.1753 263.9584 13.18686879183048
ONEWEB-0404             
1 50484U 21132R   25230.81480859  .00000469  00000+0  12861-2 0  9993
2 50484  87.8785  81.3335 0001857  95.5910 264.5429 13.11415010176068
ONEWEB-0405             
1 50485U 21132S   25230.99223359  .00000030  00000+0  44347-4 0  9993
2 50485  87.9141  35.4520 0002071  89.5567 270.5803 13.18685963183459
ONEWEB-0406             
1 50486U 21132T   25230.90647317  .00000044  00000+0  79657-4 0  9996
2 50486  87.9144  35.4921 0001689 111.3667 248.7646 13.18686609181781
ONEWEB-0407             
1 50487U 21132U   25230.97575226 -.00000008  00000+0 -53842-4 0  9993
2 50487  87.9143  35.4633 0001938  92.6266 267.5088 13.18684227183026
ONEWEB-0409             
1 50488U 21132V   25231.11830116  .00000599  00000+0  16547-2 0  9995
2 50488  87.8775  81.2323 0001606  95.3429 264.7882 13.11415367177276
