[{"OBJECT_NAME":"ONEWEB-0392","OBJECT_ID":"2021-132D","EPOCH":"2025-08-18T18:41:20.038560","MEAN_MOTION":13.1764937,"ECCENTRICITY":0.000191,"INCLINATION":87.9029,"RA_OF_ASC_NODE":66.009,"ARG_OF_PERICENTER":99.9915,"MEAN_ANOMALY":260.1433,"EPHEMERIS_TYPE":0,"CLASSIFICATION_TYPE":"U","NORAD_CAT_ID":50472,"ELEMENT_SET_NO":999,"REV_AT_EPOCH":17829,"BSTAR":0.00018486,"MEAN_MOTION_DOT":8.5e-7,"MEAN_MOTION_DDOT":0},{"OBJECT_NAME":"ONEWEB-0393","OBJECT_ID":"2021-132E","EPOCH":"2025-08-18T19:51:57.439296","MEAN_MOTION":13.17650993,"ECCENTRICITY":0.0001817,"INCLINATION":87.9031,"RA_OF_ASC_NODE":66.019,"ARG_OF_PERICENTER":93.8735,"MEAN_ANOMALY":266.2604,"EPHEMERIS_TYPE":0,"CLASSIFICATION_TYPE":"U","NORAD_CAT_ID":50473,"ELEMENT_SET_NO":999,"REV_AT_EPOCH":17829,"BSTAR":1.9724e-5,"MEAN_MOTION_DOT":2.1e-7,"MEAN_MOTION_DDOT":0},{"OBJECT_NAME":"ONEWEB-0394","OBJECT_ID":"2021-132F","EPOCH":"2025-08-18T22:58:57.399456","MEAN_MOTION":13.18685488,"ECCENTRICITY":0.0001942,"INCLINATION":87.9143,"RA_OF_ASC_NODE":35.4611,"ARG_OF_PERICENTER":95.9153,"MEAN_ANOMALY":264.2201,"EPHEMERIS_TYPE":0,"CLASSIFICATION_TYPE":"U","NORAD_CAT_ID":50474,"ELEMENT_SET_NO":999,"REV_AT_EPOCH":18303,"BSTAR":3.8001e-5,"MEAN_MOTION_DOT":2.8e-7,"MEAN_MOTION_DDOT":0},{"OBJECT_NAME":"ONEWEB-0395","OBJECT_ID":"2021-132G","EPOCH":"2025-08-18T21:06:06.562368","MEAN_MOTION":13.11416763,"ECCENTRICITY":0.0001597,"INCLINATION":87.878,"RA_OF_ASC_NODE":81.3284,"ARG_OF_PERICENTER":93.997,"MEAN_ANOMALY":266.1341,"EPHEMERIS_TYPE":0,"CLASSIFICATION_TYPE":"U","NORAD_CAT_ID":50475,"ELEMENT_SET_NO":999,"REV_AT_EPOCH":17609,"BSTAR":0.0015915,"MEAN_MOTION_DOT":5.77e-6,"MEAN_MOTION_DDOT":0},{"OBJECT_NAME":"ONEWEB-0396","OBJECT_ID":"2021-132H","EPOCH":"2025-08-18T21:00:11.740896","MEAN_MOTION":13.18685832,"ECCENTRICITY":0.0001901,"INCLINATION":87.9145,"RA_OF_ASC_NODE":35.4899,"ARG_OF_PERICENTER":95.0144,"MEAN_ANOMALY":265.1205,"EPHEMERIS_TYPE":0,"CLASSIFICATION_TYPE":"U","NORAD_CAT_ID":50476,"ELEMENT_SET_NO":999,"REV_AT_EPOCH":18179,"BSTAR":6.4886e-5,"MEAN_MOTION_DOT":3.8e-7,"MEAN_MOTION_DDOT":0},{"OBJECT_NAME":"ONEWEB-0397","OBJECT_ID":"2021-132J","EPOCH":"2025-08-18T21:21:33.483168","MEAN_MOTION":13.18686777,"ECCENTRICITY":0.0001992,"INCLINATION":87.9141,"RA_OF_ASC_NODE":35.4879,"ARG_OF_PERICENTER":91.8067,"MEAN_ANOMALY":268.3293,"EPHEMERIS_TYPE":0,"CLASSIFICATION_TYPE":"U","NORAD_CAT_ID":50477,"ELEMENT_SET_NO":999,"REV_AT_EPOCH":18177,"BSTAR":0.00013077,"MEAN_MOTION_DOT":6.4e-7,"MEAN_MOTION_DDOT":0},{"OBJECT_NAME":"ONEWEB-0398","OBJECT_ID":"2021-132K","EPOCH":"2025-08-18T20:19:42.086496","MEAN_MOTION":13.11416573,"ECCENTRICITY":0.0001318,"INCLINATION":87.8788,"RA_OF_ASC_NODE":81.2982,"ARG_OF_PERICENTER":87.1361,"MEAN_ANOMALY":272.9918,"EPHEMERIS_TYPE":0,"CLASSIFICATION_TYPE":"U","NORAD_CAT_ID":50478,"ELEMENT_SET_NO":999,"REV_AT_EPOCH":17598,"BSTAR":-0.0015374,"MEAN_MOTION_DOT":-5.32e-6,"MEAN_MOTION_DDOT":0},{"OBJECT_NAME":"ONEWEB-0399","OBJECT_ID":"2021-132L","EPOCH":"2025-08-18T20:00:10.185408","MEAN_MOTION":13.11415265,"ECCENTRICITY":0.000205,"INCLINATION":87.8778,"RA_OF_ASC_NODE":81.3244,"ARG_OF_PERICENTER":87.9787,"MEAN_ANOMALY":272.1576,"EPHEMERIS_TYPE":0,"CLASSIFICATION_TYPE":"U","NORAD_CAT_ID":50479,"ELEMENT_SET_NO":999,"REV_AT_EPOCH":17597,"BSTAR":-0.00073269,"MEAN_MOTION_DOT":-2.47e-6,"MEAN_MOTION_DDOT":0},{"OBJECT_NAME":"ONEWEB-0400","OBJECT_ID":"2021-132M","EPOCH":"2025-08-19T00:29:12.090912","MEAN_MOTION":13.18687475,"ECCENTRICITY":0.0001595,"INCLINATION":87.914,"RA_OF_ASC_NODE":35.4521,"ARG_OF_PERICENTER":94.6477,"MEAN_ANOMALY":265.4837,"EPHEMERIS_TYPE":0,"CLASSIFICATION_TYPE":"U","NORAD_CAT_ID":50480,"ELEMENT_SET_NO":999,"REV_AT_EPOCH":18306,"BSTAR":0.00013475,"MEAN_MOTION_DOT":6.6e-7,"MEAN_MOTION_DDOT":0},{"OBJECT_NAME":"ONEWEB-0401","OBJECT_ID":"2021-132N","EPOCH":"2025-08-18T21:54:49.589280","MEAN_MOTION":13.18684912,"ECCENTRICITY":0.0001964,"INCLINATION":87.9143,"RA_OF_ASC_NODE":35.4694,"ARG_OF_PERICENTER":88.6835,"MEAN_ANOMALY":271.4522,"EPHEMERIS_TYPE":0,"CLASSIFICATION_TYPE":"U","NORAD_CAT_ID":50481,"ELEMENT_SET_NO":999,"REV_AT_EPOCH":18177,"BSTAR":-7.0363e-5,"MEAN_MOTION_DOT":-1.5e-7,"MEAN_MOTION_DDOT":0},{"OBJECT_NAME":"ONEWEB-0402","OBJECT_ID":"2021-132P","EPOCH":"2025-08-18T22:51:50.061600","MEAN_MOTION":13.18686968,"ECCENTRICITY":0.0002316,"INCLINATION":87.9142,"RA_OF_ASC_NODE":35.4553,"ARG_OF_PERICENTER":83.0852,"MEAN_ANOMALY":277.0543,"EPHEMERIS_TYPE":0,"CLASSIFICATION_TYPE":"U","NORAD_CAT_ID":50482,"ELEMENT_SET_NO":999,"REV_AT_EPOCH":18308,"BSTAR":5.5701e-5,"MEAN_MOTION_DOT":3.5e-7,"MEAN_MOTION_DDOT":0},{"OBJECT_NAME":"ONEWEB-0403","OBJECT_ID":"2021-132Q","EPOCH":"2025-08-18T23:27:27.635616","MEAN_MOTION":13.18686879,"ECCENTRICITY":0.0001799,"INCLINATION":87.9143,"RA_OF_ASC_NODE":35.469,"ARG_OF_PERICENTER":96.1753,"MEAN_ANOMALY":263.9584,"EPHEMERIS_TYPE":0,"CLASSIFICATION_TYPE":"U","NORAD_CAT_ID":50483,"ELEMENT_SET_NO":999,"REV_AT_EPOCH":18304,"BSTAR":-9.2238e-5,"MEAN_MOTION_DOT":-2.3e-7,"MEAN_MOTION_DDOT":0},{"OBJECT_NAME":"ONEWEB-0404","OBJECT_ID":"2021-132R","EPOCH":"2025-08-18T19:33:19.462176","MEAN_MOTION":13.1141501,"ECCENTRICITY":0.0001857,"INCLINATION":87.8785,"RA_OF_ASC_NODE":81.3335,"ARG_OF_PERICENTER":95.591,"MEAN_ANOMALY":264.5429,"EPHEMERIS_TYPE":0,"CLASSIFICATION_TYPE":"U","NORAD_CAT_ID":50484,"ELEMENT_SET_NO":999,"REV_AT_EPOCH":17606,"BSTAR":0.0012861,"MEAN_MOTION_DOT":4.69e-6,"MEAN_MOTION_DDOT":0},{"OBJECT_NAME":"ONEWEB-0405","OBJECT_ID":"2021-132S","EPOCH":"2025-08-18T23:48:48.982176","MEAN_MOTION":13.18685963,"ECCENTRICITY":0.0002071,"INCLINATION":87.9141,"RA_OF_ASC_NODE":35.452,"ARG_OF_PERICENTER":89.5567,"MEAN_ANOMALY":270.5803,"EPHEMERIS_TYPE":0,"CLASSIFICATION_TYPE":"U","NORAD_CAT_ID":50485,"ELEMENT_SET_NO":999,"REV_AT_EPOCH":18345,"BSTAR":4.4347e-5,"MEAN_MOTION_DOT":3.0e-7,"MEAN_MOTION_DDOT":0},{"OBJECT_NAME":"ONEWEB-0406","OBJECT_ID":"2021-132T","EPOCH":"2025-08-18T21:45:19.281888","MEAN_MOTION":13.18686609,"ECCENTRICITY":0.0001689,"INCLINATION":87.9144,"RA_OF_ASC_NODE":35.4921,"ARG_OF_PERICENTER":111.3667,"MEAN_ANOMALY":248.7646,"EPHEMERIS_TYPE":0,"CLASSIFICATION_TYPE":"U","NORAD_CAT_ID":50486,"ELEMENT_SET_NO":999,"REV_AT_EPOCH":18178,"BSTAR":7.9657e-5,"MEAN_MOTION_DOT":4.4e-7,"MEAN_MOTION_DDOT":0},{"OBJECT_NAME":"ONEWEB-0407","OBJECT_ID":"2021-132U","EPOCH":"2025-08-18T23:25:04.995264","MEAN_MOTION":13.18684227,"ECCENTRICITY":0.0001938,"INCLINATION":87.9143,"RA_OF_ASC_NODE":35.4633,"ARG_OF_PERICENTER":92.6266,"MEAN_ANOMALY":267.5088,"EPHEMERIS_TYPE":0,"CLASSIFICATION_TYPE":"U","NORAD_CAT_ID":50487,"ELEMENT_SET_NO":999,"REV_AT_EPOCH":18302,"BSTAR":-5.3842e-5,"MEAN_MOTION_DOT":-8.0e-8,"MEAN_MOTION_DDOT":0},{"OBJECT_NAME":"ONEWEB-0409","OBJECT_ID":"2021-132V","EPOCH":"2025-08-19T02:50:21.220224","MEAN_MOTION":13.11415367,"ECCENTRICITY":0.0001606,"INCLINATION":87.8775,"RA_OF_ASC_NODE":81.2323,"ARG_OF_PERICENTER":95.3429,"MEAN_ANOMALY":264.7882,"EPHEMERIS_TYPE":0,"CLASSIFICATION_TYPE":"U","NORAD_CAT_ID":50488,"ELEMENT_SET_NO":999,"REV_AT_EPOCH":17727,"BSTAR":0.0016547,"MEAN_MOTION_DOT":5.99e-6,"MEAN_MOTION_DDOT":0}]
